start=new Date('2022-07-10T00:00:00.000Z').valueOf();
sats=[{"MEAN_ANOMALY":"286.5004","FILE":"3510681","COUNTRY_CODE":"US","MEAN_MOTION":"15.08846886","RCS_SIZE":"LARGE","MEAN_MOTION_DDOT":"0.0000000000000","TLE_LINE1":"1 50838U 22001AM  22190.69553192 -.00006435  00000-0 -38644-3 0  9991","ELEMENT_SET_NO":"999","NORAD_CAT_ID":"50838","TIME_SYSTEM":"UTC","OBJECT_TYPE":"PAYLOAD","OBJECT_NAME":"STARLINK-3322","SITE":"AFETR","OBJECT_ID":"2022-001AM","ECCENTRICITY":"0.00028540","MEAN_ELEMENT_THEORY":"SGP4","ARG_OF_PERICENTER":"73.6302","GP_ID":"207785279","EPOCH":"2022-07-09T16:41:33.957888","TLE_LINE2":"2 50838  53.2175  70.0994 0002854  73.6302 286.5004 15.08846886 28120","INCLINATION":"53.2175","PERIOD":"95.437","EPHEMERIS_TYPE":"0","APOAPSIS":"541.699","REF_FRAME":"TEME","PERIAPSIS":"537.750","CENTER_NAME":"EARTH","REV_AT_EPOCH":"2812","BSTAR":"-0.00038644000000","DECAY_DATE":null,"RA_OF_ASC_NODE":"70.0994","MEAN_MOTION_DOT":"-0.00006435","CLASSIFICATION_TYPE":"U","LAUNCH_DATE":"2022-01-06","SEMIMAJOR_AXIS":"6917.859"},{"ELEMENT_SET_NO":"999","NORAD_CAT_ID":"50839","FILE":"3510681","MEAN_ANOMALY":"279.9691","MEAN_MOTION":"15.08847075","COUNTRY_CODE":"US","MEAN_MOTION_DDOT":"0.0000000000000","RCS_SIZE":"LARGE","TLE_LINE1":"1 50839U 22001AN  22190.64033825 -.00001078  00000-0 -49615-4 0  9992","ECCENTRICITY":"0.00029770","MEAN_ELEMENT_THEORY":"SGP4","OBJECT_TYPE":"PAYLOAD","TIME_SYSTEM":"UTC","OBJECT_NAME":"STARLINK-3320","SITE":"AFETR","OBJECT_ID":"2022-001AN","APOAPSIS":"541.783","REF_FRAME":"TEME","PERIAPSIS":"537.664","REV_AT_EPOCH":"2810","CENTER_NAME":"EARTH","ARG_OF_PERICENTER":"80.1637","GP_ID":"207785529","INCLINATION":"53.2188","TLE_LINE2":"2 50839  53.2188  70.3413 0002977  80.1637 279.9691 15.08847075 28101","EPOCH":"2022-07-09T15:22:05.224800","PERIOD":"95.437","EPHEMERIS_TYPE":"0","MEAN_MOTION_DOT":"-0.00001078","CLASSIFICATION_TYPE":"U","LAUNCH_DATE":"2022-01-06","SEMIMAJOR_AXIS":"6917.859","BSTAR":"-0.00004961500000","DECAY_DATE":null,"RA_OF_ASC_NODE":"70.3413"},{"MEAN_ANOMALY":"286.6247","FILE":"3510681","COUNTRY_CODE":"US","MEAN_MOTION":"15.08838232","RCS_SIZE":"LARGE","MEAN_MOTION_DDOT":"0.0000000000000","TLE_LINE1":"1 50840U 22001AP  22190.70289152 -.00006877  00000-0 -41438-3 0  9993","ELEMENT_SET_NO":"999","NORAD_CAT_ID":"50840","TIME_SYSTEM":"UTC","OBJECT_TYPE":"PAYLOAD","OBJECT_NAME":"STARLINK-3295","OBJECT_ID":"2022-001AP","SITE":"AFETR","ECCENTRICITY":"0.00024310","MEAN_ELEMENT_THEORY":"SGP4","ARG_OF_PERICENTER":"73.5012","GP_ID":"207785781","EPOCH":"2022-07-09T16:52:09.827328","TLE_LINE2":"2 50840  53.2172  70.0543 0002431  73.5012 286.6247 15.08838232 28113","INCLINATION":"53.2172","PERIOD":"95.438","EPHEMERIS_TYPE":"0","REF_FRAME":"TEME","APOAPSIS":"541.433","PERIAPSIS":"538.069","CENTER_NAME":"EARTH","REV_AT_EPOCH":"2811","BSTAR":"-0.00041438000000","DECAY_DATE":null,"RA_OF_ASC_NODE":"70.0543","MEAN_MOTION_DOT":"-0.00006877","CLASSIFICATION_TYPE":"U","LAUNCH_DATE":"2022-01-06","SEMIMAJOR_AXIS":"6917.886"},{"MEAN_ELEMENT_THEORY":"SGP4","ECCENTRICITY":"0.00026780","SITE":"AFETR","OBJECT_ID":"2022-001AQ","OBJECT_NAME":"STARLINK-3300","OBJECT_TYPE":"PAYLOAD","TIME_SYSTEM":"UTC","NORAD_CAT_ID":"50841","ELEMENT_SET_NO":"999","TLE_LINE1":"1 50841U 22001AQ  22190.38272526  .00003097  00000-0  21248-3 0  9991","MEAN_MOTION_DDOT":"0.0000000000000","RCS_SIZE":"LARGE","COUNTRY_CODE":"US","MEAN_MOTION":"15.08860257","FILE":"3510582","MEAN_ANOMALY":"290.8936","LAUNCH_DATE":"2022-01-06","SEMIMAJOR_AXIS":"6917.818","CLASSIFICATION_TYPE":"U","MEAN_MOTION_DOT":"0.00003097","RA_OF_ASC_NODE":"71.4966","DECAY_DATE":null,"BSTAR":"0.00021248000000","REV_AT_EPOCH":"2807","CENTER_NAME":"EARTH","PERIAPSIS":"537.831","REF_FRAME":"TEME","APOAPSIS":"541.536","PERIOD":"95.436","EPHEMERIS_TYPE":"0","INCLINATION":"53.2178","TLE_LINE2":"2 50841  53.2178  71.4966 0002678  69.2343 290.8936 15.08860257 28075","EPOCH":"2022-07-09T09:11:07.462464","GP_ID":"207734035","ARG_OF_PERICENTER":"69.2343"},{"MEAN_MOTION_DDOT":"0.0000000000000","RCS_SIZE":"LARGE","TLE_LINE1":"1 50842U 22001AR  22190.63297960 -.00003646  00000-0 -21108-3 0  9996","FILE":"3510681","MEAN_ANOMALY":"284.0200","COUNTRY_CODE":"US","MEAN_MOTION":"15.08837251","NORAD_CAT_ID":"50842","ELEMENT_SET_NO":"999","OBJECT_ID":"2022-001AR","SITE":"AFETR","OBJECT_TYPE":"PAYLOAD","TIME_SYSTEM":"UTC","OBJECT_NAME":"STARLINK-3302","MEAN_ELEMENT_THEORY":"SGP4","ECCENTRICITY":"0.00025240","TLE_LINE2":"2 50842  53.2178  70.3830 0002524  76.1072 284.0200 15.08837251 28101","INCLINATION":"53.2178","EPOCH":"2022-07-09T15:11:29.437440","PERIOD":"95.438","EPHEMERIS_TYPE":"0","ARG_OF_PERICENTER":"76.1072","GP_ID":"207784780","PERIAPSIS":"538.008","REV_AT_EPOCH":"2810","CENTER_NAME":"EARTH","REF_FRAME":"TEME","APOAPSIS":"541.500","RA_OF_ASC_NODE":"70.3830","BSTAR":"-0.00021108000000","DECAY_DATE":null,"LAUNCH_DATE":"2022-01-06","SEMIMAJOR_AXIS":"6917.889","MEAN_MOTION_DOT":"-0.00003646","CLASSIFICATION_TYPE":"U"},{"OBJECT_NAME":"STARLINK-3325","TIME_SYSTEM":"UTC","OBJECT_TYPE":"PAYLOAD","OBJECT_ID":"2022-001AS","SITE":"AFETR","ECCENTRICITY":"0.00029940","MEAN_ELEMENT_THEORY":"SGP4","MEAN_MOTION":"15.08861481","COUNTRY_CODE":"US","MEAN_ANOMALY":"296.4091","FILE":"3510582","TLE_LINE1":"1 50843U 22001AS  22190.45632606  .00003133  00000-0  21476-3 0  9994","RCS_SIZE":"LARGE","MEAN_MOTION_DDOT":"0.0000000000000","ELEMENT_SET_NO":"999","NORAD_CAT_ID":"50843","DECAY_DATE":null,"BSTAR":"0.00021476000000","RA_OF_ASC_NODE":"71.1797","CLASSIFICATION_TYPE":"U","MEAN_MOTION_DOT":"0.00003133","LAUNCH_DATE":"2022-01-06","SEMIMAJOR_AXIS":"6917.815","GP_ID":"207732534","ARG_OF_PERICENTER":"63.7208","EPHEMERIS_TYPE":"0","PERIOD":"95.436","EPOCH":"2022-07-09T10:57:06.571584","INCLINATION":"53.2171","TLE_LINE2":"2 50843  53.2171  71.1797 0002994  63.7208 296.4091 15.08861481 28084","REF_FRAME":"TEME","APOAPSIS":"541.751","CENTER_NAME":"EARTH","REV_AT_EPOCH":"2808","PERIAPSIS":"537.609"},{"TLE_LINE1":"1 50844U 22001AT  22190.68816672 -.00001589  00000-0 -81683-4 0  9999","MEAN_MOTION_DDOT":"0.0000000000000","RCS_SIZE":"LARGE","MEAN_MOTION":"15.08853789","COUNTRY_CODE":"US","FILE":"3510681","MEAN_ANOMALY":"292.3759","NORAD_CAT_ID":"50844","ELEMENT_SET_NO":"999","OBJECT_ID":"2022-001AT","SITE":"AFETR","OBJECT_NAME":"STARLINK-3326","OBJECT_TYPE":"PAYLOAD","TIME_SYSTEM":"UTC","MEAN_ELEMENT_THEORY":"SGP4","ECCENTRICITY":"0.00022220","EPHEMERIS_TYPE":"0","PERIOD":"95.437","TLE_LINE2":"2 50844  53.2192  70.1377 0002222  67.7468 292.3759 15.08853789 28120","INCLINATION":"53.2192","EPOCH":"2022-07-09T16:30:57.604608","GP_ID":"207786281","ARG_OF_PERICENTER":"67.7468","REV_AT_EPOCH":"2812","CENTER_NAME":"EARTH","PERIAPSIS":"538.166","REF_FRAME":"TEME","APOAPSIS":"541.240","RA_OF_ASC_NODE":"70.1377","DECAY_DATE":null,"BSTAR":"-0.00008168300000","LAUNCH_DATE":"2022-01-06","SEMIMAJOR_AXIS":"6917.838","CLASSIFICATION_TYPE":"U","MEAN_MOTION_DOT":"-0.00001589"},{"MEAN_MOTION_DDOT":"0.0000000000000","RCS_SIZE":"LARGE","TLE_LINE1":"1 50845U 22001AU  22190.40112671  .00001208  00000-0  93925-4 0  9996","FILE":"3510582","MEAN_ANOMALY":"294.3657","MEAN_MOTION":"15.08861228","COUNTRY_CODE":"US","NORAD_CAT_ID":"50845","ELEMENT_SET_NO":"999","OBJECT_ID":"2022-001AU","SITE":"AFETR","OBJECT_TYPE":"PAYLOAD","TIME_SYSTEM":"UTC","OBJECT_NAME":"STARLINK-3230","MEAN_ELEMENT_THEORY":"SGP4","ECCENTRICITY":"0.00019890","INCLINATION":"53.2180","TLE_LINE2":"2 50845  53.2180  71.4163 0001989  65.7543 294.3657 15.08861228 28087","EPOCH":"2022-07-09T09:37:37.347744","PERIOD":"95.436","EPHEMERIS_TYPE":"0","ARG_OF_PERICENTER":"65.7543","GP_ID":"207733536","PERIAPSIS":"538.305","REV_AT_EPOCH":"2808","CENTER_NAME":"EARTH","APOAPSIS":"541.056","REF_FRAME":"TEME","RA_OF_ASC_NODE":"71.4163","BSTAR":"0.00009392500000","DECAY_DATE":null,"SEMIMAJOR_AXIS":"6917.816","LAUNCH_DATE":"2022-01-06","MEAN_MOTION_DOT":"0.00001208","CLASSIFICATION_TYPE":"U"},{"MEAN_ELEMENT_THEORY":"SGP4","ECCENTRICITY":"0.00029220","SITE":"AFETR","OBJECT_ID":"2022-001AV","OBJECT_NAME":"STARLINK-3308","TIME_SYSTEM":"UTC","OBJECT_TYPE":"PAYLOAD","NORAD_CAT_ID":"50846","ELEMENT_SET_NO":"999","TLE_LINE1":"1 50846U 22001AV  22190.15457757  .00004533  00000-0  30259-3 0  9990","RCS_SIZE":"LARGE","MEAN_MOTION_DDOT":"0.0000000000000","COUNTRY_CODE":"US","MEAN_MOTION":"15.08858439","MEAN_ANOMALY":"285.6532","FILE":"3510582","LAUNCH_DATE":"2022-01-06","SEMIMAJOR_AXIS":"6917.824","CLASSIFICATION_TYPE":"U","MEAN_MOTION_DOT":"0.00004533","RA_OF_ASC_NODE":"72.5299","DECAY_DATE":null,"BSTAR":"0.00030259000000","CENTER_NAME":"EARTH","REV_AT_EPOCH":"2804","PERIAPSIS":"537.668","APOAPSIS":"541.710","REF_FRAME":"TEME","PERIOD":"95.436","EPHEMERIS_TYPE":"0","EPOCH":"2022-07-09T03:42:35.502048","INCLINATION":"53.2189","TLE_LINE2":"2 50846  53.2189  72.5299 0002922  74.4783 285.6532 15.08858439 28041","GP_ID":"207734286","ARG_OF_PERICENTER":"74.4783"},{"RA_OF_ASC_NODE":"70.0235","BSTAR":"-0.00020144000000","DECAY_DATE":null,"LAUNCH_DATE":"2022-01-06","SEMIMAJOR_AXIS":"6917.902","MEAN_MOTION_DOT":"-0.00003492","CLASSIFICATION_TYPE":"U","TLE_LINE2":"2 50847  53.2177  70.0235 0001307  91.3537 268.7605 15.08832978 28125","INCLINATION":"53.2177","EPOCH":"2022-07-09T17:02:44.841408","PERIOD":"95.438","EPHEMERIS_TYPE":"0","ARG_OF_PERICENTER":"91.3537","GP_ID":"207785530","PERIAPSIS":"538.863","REV_AT_EPOCH":"2812","CENTER_NAME":"EARTH","REF_FRAME":"TEME","APOAPSIS":"540.671","SITE":"AFETR","OBJECT_ID":"2022-001AW","OBJECT_TYPE":"PAYLOAD","TIME_SYSTEM":"UTC","OBJECT_NAME":"STARLINK-3319","MEAN_ELEMENT_THEORY":"SGP4","ECCENTRICITY":"0.00013070","MEAN_MOTION_DDOT":"0.0000000000000","RCS_SIZE":"LARGE","TLE_LINE1":"1 50847U 22001AW  22190.71024122 -.00003492  00000-0 -20144-3 0  9996","FILE":"3510681","MEAN_ANOMALY":"268.7605","MEAN_MOTION":"15.08832978","COUNTRY_CODE":"US","NORAD_CAT_ID":"50847","ELEMENT_SET_NO":"999"}];
